NORAD_CAT_ID,OBJECT_NAME,OBJECT_TYPE,EPOCH,MEAN_MOTION,ECCENTRICITY,INCLINATION,RA_OF_ASC_NODE,ARG_OF_PERICENTER,MEAN_ANOMALY,BSTAR,MEAN_MOTION_DOT,MEAN_MOTION_DDOT,TLE_LINE0,TLE_LINE1,TLE_LINE2,SEMIMAJOR_AXIS,PERIOD,APOGEE,PERIGEE,DECAYED
52262.0,STARLINK-3761,PAYLOAD,2023-04-08 12:16:53,15.08841512,0.0001351,53.2162,215.3325,82.392,277.7226,7.6333e-05,9.27e-06,0.0,0 STARLINK-3761,1 52262U 22041B   23098.51173092  .00000927  00000-0  76333-4 0  9990,2 52262  53.2162 215.3325 0001351  82.3920 277.7226 15.08841512 54628,6917.876,95.437,540.675,538.806,0.0
52262.0,STARLINK-3761,PAYLOAD,2023-04-09 07:21:31,15.08837385,9.73e-05,53.2145,211.7612,106.7945,253.3153,0.00011485,1.54e-05,0.0,0 STARLINK-3761,1 52262U 22041B   23099.30661219  .00001540  00000-0  11485-3 0  9999,2 52262  53.2145 211.7612 0000973 106.7945 253.3153 15.08837385 54740,6917.888,95.438,540.426,539.08,0.0
52262.0,STARLINK-3761,PAYLOAD,2023-04-09 16:53:50,15.08846242,0.0001142,53.2168,209.9788,96.2813,263.831,0.00016964,2.413e-05,0.0,0 STARLINK-3761,1 52262U 22041B   23099.70405112  .00002413  00000-0  16964-3 0  9998,2 52262  53.2168 209.9788 0001142  96.2813 263.8310 15.08846242 53588,6917.861,95.437,540.516,538.936,0.0
52262.0,STARLINK-3761,PAYLOAD,2023-04-10 07:12:18,15.08846563,0.0001419,53.2161,207.3026,98.3115,261.8038,0.00029082,4.344e-05,0.0,0 STARLINK-3761,1 52262U 22041B   23100.30021264  .00004344  00000-0  29082-3 0  9999,2 52262  53.2161 207.3026 0001419  98.3115 261.8038 15.08846563 53674,6917.86,95.437,540.707,538.744,0.0
52262.0,STARLINK-3761,PAYLOAD,2023-04-11 11:49:14,15.08853902,0.0001404,53.2161,201.948,109.6364,250.478,0.00032672,4.918e-05,0.0,0 STARLINK-3761,1 52262U 22041B   23101.49252421  .00004918  00000-0  32672-3 0  9997,2 52262  53.2161 201.9480 0001404 109.6364 250.4780 15.08853902 53857,6917.838,95.437,540.674,538.732,0.0
52262.0,STARLINK-3761,PAYLOAD,2023-04-12 13:15:24,15.08843532,0.0001276,53.2164,197.1933,98.6858,261.4279,-1.6886e-06,-3.15e-06,0.0,0 STARLINK-3761,1 52262U 22041B   23102.55236543 -.00000315  00000-0 -16886-5 0  9992,2 52262  53.2164 197.1933 0001276  98.6858 261.4279 15.08843532 55238,6917.87,95.437,540.617,538.852,0.0
52262.0,STARLINK-3761,PAYLOAD,2023-04-13 05:09:15,15.08840133,0.0001529,53.2159,194.2198,102.0081,258.1082,-7.4018e-05,-1.466e-05,0.0,0 STARLINK-3761,1 52262U 22041B   23103.21476723 -.00001466  00000-0 -74018-4 0  9990,2 52262  53.2159 194.2198 0001529 102.0081 258.1082 15.08840133 54117,6917.88,95.438,540.803,538.687,0.0
52262.0,STARLINK-3761,PAYLOAD,2023-04-13 13:06:10,15.08857171,0.0001414,53.2158,192.7341,109.0902,251.0244,-0.00038156,-6.358e-05,0.0,0 STARLINK-3761,1 52262U 22041B   23103.54595630 -.00006358  00000-0 -38156-3 0  9992,2 52262  53.2158 192.7341 0001414 109.0902 251.0244 15.08857171 55383,6917.828,95.436,540.671,538.715,0.0
52262.0,STARLINK-3761,PAYLOAD,2023-04-14 06:35:26,15.08839799,0.0001542,53.2165,189.4618,101.3476,258.7689,6.3234e-05,7.19e-06,0.0,0 STARLINK-3761,1 52262U 22041B   23104.27460713  .00000719  00000-0  63234-4 0  9995,2 52262  53.2165 189.4618 0001542 101.3476 258.7689 15.08839799 55499,6917.881,95.438,540.813,538.679,0.0
52262.0,STARLINK-3761,PAYLOAD,2023-04-14 11:21:36,15.08835472,0.0001403,53.2176,188.5704,95.4365,264.6787,6.567e-05,7.57e-06,0.0,0 STARLINK-3761,1 52262U 22041B   23104.47333338  .00000757  00000-0  65670-4 0  9997,2 52262  53.2176 188.5704 0001403  95.4365 264.6787 15.08835472 54301,6917.894,95.438,540.73,538.789,0.0
52262.0,STARLINK-3761,PAYLOAD,2023-04-15 12:47:45,15.08843217,0.0001758,53.2176,183.8127,101.807,258.3119,5.897e-05,6.51e-06,0.0,0 STARLINK-3761,1 52262U 22041B   23105.53316855  .00000651  00000-0  58970-4 0  9998,2 52262  53.2176 183.8127 0001758 101.8070 258.3119 15.08843217 55683,6917.871,95.437,540.952,538.519,0.0
52262.0,STARLINK-3761,PAYLOAD,2023-04-16 04:41:37,15.08830558,0.0001423,53.2156,180.8379,78.4277,281.6875,2.22e-05,6.5e-07,0.0,0 STARLINK-3761,1 52262U 22041B   23106.19557751  .00000065  00000-0  22200-4 0  9999,2 52262  53.2156 180.8379 0001423  78.4277 281.6875 15.08830558 55787,6917.909,95.438,540.759,538.79,0.0
52262.0,STARLINK-3761,PAYLOAD,2023-04-16 12:38:33,15.08843054,0.0001151,53.2171,179.351,85.4937,274.6187,0.00012443,1.693e-05,0.0,0 STARLINK-3761,1 52262U 22041B   23106.52677091  .00001693  00000-0  12443-3 0  9991,2 52262  53.2171 179.3510 0001151  85.4937 274.6187 15.08843054 54617,6917.871,95.437,540.532,538.94,0.0
52262.0,STARLINK-3761,PAYLOAD,2023-04-17 04:32:25,15.08832706,0.0001297,53.2161,176.3783,82.8062,277.3078,2.2432e-05,6.9e-07,0.0,0 STARLINK-3761,1 52262U 22041B   23107.18917878  .00000069  00000-0  22432-4 0  9990,2 52262  53.2161 176.3783 0001297  82.8062 277.3078 15.08832706 55933,6917.903,95.438,540.665,538.87,0.0
52262.0,STARLINK-3761,PAYLOAD,2023-04-17 10:53:57,15.08837192,0.0001272,53.2162,175.1878,87.1964,272.9174,2.1826e-05,5.9e-07,0.0,0 STARLINK-3761,1 52262U 22041B   23107.45413900  .00000059  00000-0  21826-4 0  9992,2 52262  53.2162 175.1878 0001272  87.1964 272.9174 15.08837192 54759,6917.889,95.438,540.634,538.874,0.0
52262.0,STARLINK-3761,PAYLOAD,2023-04-17 14:04:43,15.08842421,0.000124,53.2162,174.5916,94.0246,266.0888,3.0453e-05,1.97e-06,0.0,0 STARLINK-3761,1 52262U 22041B   23107.58661518  .00000197  00000-0  30453-4 0  9995,2 52262  53.2162 174.5916 0001240  94.0246 266.0888 15.08842421 55994,6917.873,95.437,540.596,538.88,0.0
52262.0,STARLINK-3761,PAYLOAD,2023-04-18 09:09:21,15.08838496,0.0001279,53.2156,171.0236,87.3309,272.783,0.00014879,2.081e-05,0.0,0 STARLINK-3761,1 52262U 22041B   23108.38149714  .00002081  00000-0  14879-3 0  9990,2 52262  53.2156 171.0236 0001279  87.3309 272.7830 15.08838496 54897,6917.885,95.438,540.635,538.865,0.0
52262.0,STARLINK-3761,PAYLOAD,2023-04-19 04:13:59,15.08826121,9.44e-05,53.2157,167.4561,88.8032,271.3069,0.00031284,4.693e-05,0.0,0 STARLINK-3761,1 52262U 22041B   23109.17638194  .00004693  00000-0  31284-3 0  9993,2 52262  53.2157 167.4561 0000944  88.8032 271.3069 15.08826121 56236,6917.923,95.438,540.441,539.135,0.0
52262.0,STARLINK-3761,PAYLOAD,2023-04-19 09:00:08,15.08829347,9.73e-05,53.2159,166.5638,87.9987,272.1117,0.00022544,3.301e-05,0.0,0 STARLINK-3761,1 52262U 22041B   23109.37510261  .00003301  00000-0  22544-3 0  9993,2 52262  53.2159 166.5638 0000973  87.9987 272.1117 15.08829347 55048,6917.913,95.438,540.451,539.105,0.0
52262.0,STARLINK-3761,PAYLOAD,2023-04-19 10:35:31,15.08839944,0.000132,53.2163,166.2673,81.7729,278.3413,0.00010275,1.348e-05,0.0,0 STARLINK-3761,1 52262U 22041B   23109.44133927  .00001348  00000-0  10275-3 0  9998,2 52262  53.2163 166.2673 0001320  81.7729 278.3413 15.08839944 55054,6917.881,95.438,540.659,538.832,0.0
52262.0,STARLINK-3761,PAYLOAD,2023-04-20 12:01:42,15.08841729,0.0001355,53.2176,161.5101,91.0096,269.1051,3.9449e-05,3.4e-06,0.0,0 STARLINK-3761,1 52262U 22041B   23110.50118060  .00000340  00000-0  39449-4 0  9994,2 52262  53.2176 161.5101 0001355  91.0096 269.1051 15.08841729 55219,6917.875,95.437,540.677,538.803,0.0
52262.0,STARLINK-3761,PAYLOAD,2023-04-20 19:58:38,15.08833432,0.0001338,53.2169,160.0231,86.5944,273.5201,2.8757e-05,1.7e-06,0.0,0 STARLINK-3761,1 52262U 22041B   23110.83238749  .00000170  00000-0  28757-4 0  9998,2 52262  53.2169 160.0231 0001338  86.5944 273.5201 15.08833432 55264,6917.9,95.438,540.691,538.84,0.0
52262.0,STARLINK-3761,PAYLOAD,2023-04-21 11:52:29,15.08833555,0.0001218,53.2184,157.0498,84.2014,275.9117,3.9137e-05,3.35e-06,0.0,0 STARLINK-3761,1 52262U 22041B   23111.49478977  .00000335  00000-0  39137-4 0  9997,2 52262  53.2184 157.0498 0001218  84.2014 275.9117 15.08833555 55361,6917.9,95.438,540.608,538.922,0.0
52262.0,STARLINK-3761,PAYLOAD,2023-04-21 19:49:25,15.08839611,0.000137,53.2176,155.5622,81.3785,278.7362,2.7085e-05,1.43e-06,0.0,0 STARLINK-3761,1 52262U 22041B   23111.82598678  .00000143  00000-0  27085-4 0  9991,2 52262  53.2176 155.5622 0001370  81.3785 278.7362 15.08839611 56639,6917.882,95.438,540.694,538.799,0.0
52262.0,STARLINK-3761,PAYLOAD,2023-04-22 02:10:57,15.0884295,0.0001313,53.2171,154.3719,93.6573,266.4569,8.4365e-05,1.055e-05,0.0,0 STARLINK-3761,1 52262U 22041B   23112.09094406  .00001055  00000-0  84365-4 0  9998,2 52262  53.2171 154.3719 0001313  93.6573 266.4569 15.08842950 55458,6917.871,95.437,540.645,538.828,0.0
52262.0,STARLINK-3761,PAYLOAD,2023-04-22 10:07:52,15.08848233,0.0001266,53.2165,152.8853,90.8902,269.2236,0.00014962,2.095e-05,0.0,0 STARLINK-3761,1 52262U 22041B   23112.42213847  .00002095  00000-0  14962-3 0  9997,2 52262  53.2165 152.8853 0001266  90.8902 269.2236 15.08848233 55503,6917.855,95.437,540.596,538.844,0.0
52262.0,STARLINK-3761,PAYLOAD,2023-04-23 11:34:04,15.08835159,0.0001184,53.2161,148.127,85.9302,274.1825,4.3471e-05,4.04e-06,0.0,0 STARLINK-3761,1 52262U 22041B   23113.48199156  .00000404  00000-0  43471-4 0  9990,2 52262  53.2161 148.1270 0001184  85.9302 274.1825 15.08835159 56882,6917.895,95.438,540.579,538.941,0.0
52262.0,STARLINK-3761,PAYLOAD,2023-04-24 11:24:48,15.08864245,0.0001463,53.2172,143.6664,88.3863,271.7297,0.00018715,2.694e-05,0.0,0 STARLINK-3761,1 52262U 22041B   23114.47556602  .00002694  00000-0  18715-3 0  9998,2 52262  53.2172 143.6664 0001463  88.3863 271.7297 15.08864245 57032,6917.806,95.436,540.683,538.659,0.0
52262.0,STARLINK-3761,PAYLOAD,2023-04-24 19:21:45,15.08845794,0.000155,53.2147,142.1846,64.8837,295.2316,1.3475e-05,-7.4e-07,0.0,0 STARLINK-3761,1 52262U 22041B   23114.80677681 -.00000074  00000-0  13475-4 0  9996,2 52262  53.2147 142.1846 0001550  64.8837 295.2316 15.08845794 57083,6917.863,95.437,540.8,538.655,0.0
52262.0,STARLINK-3761,PAYLOAD,2023-04-25 11:15:38,15.08828488,0.0001354,53.2162,139.2063,88.4335,271.6812,-7.3768e-05,-1.461e-05,0.0,0 STARLINK-3761,1 52262U 22041B   23115.46919532 -.00001461  00000-0 -73768-4 0  9996,2 52262  53.2162 139.2063 0001354  88.4335 271.6812 15.08828488 55960,6917.916,95.438,540.717,538.844,0.0
